NORAD_CAT_ID,OBJECT_NAME,OBJECT_TYPE,EPOCH,MEAN_MOTION,ECCENTRICITY,INCLINATION,RA_OF_ASC_NODE,ARG_OF_PERICENTER,MEAN_ANOMALY,BSTAR,MEAN_MOTION_DOT,MEAN_MOTION_DDOT,TLE_LINE0,TLE_LINE1,TLE_LINE2,SEMIMAJOR_AXIS,PERIOD,APOGEE,PERIGEE,DECAYED
49423.0,STARLINK-3149,PAYLOAD,2021-12-31 14:00:01,15.4682208,0.0001305,53.2173,257.0919,69.37899999999999,180.702,-0.01391,-0.00653006,0.0,0 STARLINK-3149,1 49423U 21104R   21365.58334491 -.00653006  00000-0 -13910-1 0  9991,2 49423  53.2173 257.0919 0001305  69.3790 180.7020 15.46822080  3682,6804.167,93.094,426.919,425.144,0.0
49423.0,STARLINK-3149,PAYLOAD,2021-12-31 22:00:00,15.46355859,0.0001302,53.2175,255.5091,63.5031,243.5263,-0.014147,-0.00653423,0.0,0 STARLINK-3149,1 49423U 21104R   21365.91667824 -.00653423  00000-0 -14147-1 0  9993,2 49423  53.2175 255.5091 0001302  63.5031 243.5263 15.46355859  8866,6805.534000000002,93.122,428.285,426.513,0.0
49423.0,STARLINK-3149,PAYLOAD,2021-12-31 22:13:50,15.47216589,0.0001051,53.2176,255.4508,68.6558,291.4563,-0.0054229,-0.00271204,0.0,0 STARLINK-3149,1 49423U 21104R   21365.92628314 -.00271204  00000-0 -54229-2 0  9994,2 49423  53.2176 255.4508 0001051  68.6558 291.4563 15.47216589  7782,6803.01,93.07,425.59,424.16,0.0
49423.0,STARLINK-3149,PAYLOAD,2022-01-01 14:00:01,15.45422361,0.0001073,53.2173,252.342,86.2659,333.0461,-0.014614,-0.00653512,0.0,0 STARLINK-3149,1 49423U 21104R   22001.58335648 -.00653512  00000-0 -14614-1 0  9998,2 49423  53.2173 252.3420 0001073  86.2659 333.0461 15.45422361  3679,6808.274,93.178,430.87,429.409,0.0
49423.0,STARLINK-3149,PAYLOAD,2022-01-01 22:00:00,15.44956743,0.0001435,53.2173,250.7627,52.3916,62.1221,-0.014879,-0.00654738,0.0,0 STARLINK-3149,1 49423U 21104R   22001.91667824 -.00654738  00000-0 -14879-1 0  9993,2 49423  53.2173 250.7627 0001435  52.3916  62.1221 15.44956743  3671,6809.642,93.206,432.484,430.53,0.0
49423.0,STARLINK-3149,PAYLOAD,2022-01-02 14:00:01,15.4402371,0.000134,53.2173,247.6021,69.2131,154.1548,-0.015367,-0.00662781,0.0,0 STARLINK-3149,1 49423U 21104R   22002.58334491 -.00662781  00000-0 -15367-1 0  9998,2 49423  53.2173 247.6021 0001340  69.2131 154.1548 15.44023710  3678,6812.385,93.263,435.163,433.337,0.0
49423.0,STARLINK-3149,PAYLOAD,2022-01-02 22:00:00,15.43555641,0.0001405,53.2174,246.0262,61.5169,215.4361,-0.015544,-0.00660028,0.0,0 STARLINK-3149,1 49423U 21104R   22002.91667824 -.00660028  00000-0 -15544-1 0  9993,2 49423  53.2174 246.0262 0001405  61.5169 215.4361 15.43555641  3673,6813.762,93.291,436.585,434.67,0.0
49423.0,STARLINK-3149,PAYLOAD,2022-01-03 06:00:00,15.43092019,0.000112,53.2174,244.4494,85.5954,244.3815,-0.015909,-0.00664608,0.0,0 STARLINK-3149,1 49423U 21104R   22003.25001157 -.00664608  00000-0 -15909-1 0  9995,2 49423  53.2174 244.4494 0001120  85.5954 244.3815 15.43092019  9221,6815.127,93.319,437.755,436.229,0.0
49423.0,STARLINK-3149,PAYLOAD,2022-01-03 14:00:01,15.42622217,0.0001182,53.2174,242.8723,66.0063,316.4373,-0.016036,-0.00659719,0.0,0 STARLINK-3149,1 49423U 21104R   22003.58334491 -.00659719  00000-0 -16036-1 0  9990,2 49423  53.2174 242.8723 0001182  66.0063 316.4373 15.42622217  3672,6816.511,93.348,439.181,437.57,0.0
49423.0,STARLINK-3149,PAYLOAD,2022-01-03 22:00:00,15.42158357,0.0001483,53.2176,241.2999,47.125,27.22,-0.016396,-0.00663803,0.0,0 STARLINK-3149,1 49423U 21104R   22003.91667824 -.00663803  00000-0 -16396-1 0  9994,2 49423  53.2176 241.2999 0001483  47.1250  27.2200 15.42158357  3680,6817.877,93.376,440.754,438.731,0.0
49423.0,STARLINK-3149,PAYLOAD,2022-01-04 12:00:00,15.41339606,0.0001212,53.2174,238.5457,61.2267,12.6028,-0.0167539999999999,-0.00660143,0.0,0 STARLINK-3149,1 49423U 21104R   22004.50001157 -.00660143  00000-0 -16754-1 0  9993,2 49423  53.2174 238.5457 0001212  61.2267  12.6028 15.41339606  9411,6820.292,93.425,442.983,441.33,0.0
49423.0,STARLINK-3149,PAYLOAD,2022-01-04 14:00:01,15.41225024,0.0001371,53.2174,238.1526,64.9192,111.5526,-0.016913,-0.00663622,0.0,0 STARLINK-3149,1 49423U 21104R   22004.58334491 -.00663622  00000-0 -16913-1 0  9993,2 49423  53.2174 238.1526 0001371  64.9192 111.5526 15.41225024  3679,6820.63,93.432,443.43,441.56,0.0
49423.0,STARLINK-3149,PAYLOAD,2022-01-04 21:01:50,15.4187012,0.000162,53.2174,236.7634,102.1396,257.9793,-0.0043088,-0.0018177,0.0,0 STARLINK-3149,1 49423U 21104R   22004.87627320 -.00181770  00000-0 -43088-2 0  9994,2 49423  53.2174 236.7634 0001620 102.1396 257.9793 15.41870120  8399,6818.727,93.393,441.697,439.48800000000006,0.0
49423.0,STARLINK-3149,PAYLOAD,2022-01-05 14:00:01,15.39822699,0.0001259,53.2175,233.4427,66.3587,259.0976,-0.017584,-0.00658823,0.0,0 STARLINK-3149,1 49423U 21104R   22005.58334491 -.00658823  00000-0 -17584-1 0  9996,2 49423  53.2175 233.4427 0001259  66.3587 259.0976 15.39822699  9588,6824.77,93.517,447.494,445.776,0.0
49423.0,STARLINK-3149,PAYLOAD,2022-01-05 22:00:00,15.39359423,0.0001426999999999,53.2174,231.877,50.1705,323.8233,-0.018023,-0.00664596,0.0,0 STARLINK-3149,1 49423U 21104R   22005.91667824 -.00664596  00000-0 -18023-1 0  9995,2 49423  53.2174 231.8770 0001427  50.1705 323.8233 15.39359423  3670,6826.139,93.545,448.978,447.03,0.0
49423.0,STARLINK-3149,PAYLOAD,2022-01-06 14:00:01,15.38424571,0.0001335,53.2174,228.7429,60.2218,49.1715,-0.018479,-0.00661011,0.0,0 STARLINK-3149,1 49423U 21104R   22006.58334491 -.00661011  00000-0 -18479-1 0  9994,2 49423  53.2174 228.7429 0001335  60.2218  49.1715 15.38424571  9748,6828.904,93.602,451.681,449.858,0.0
49423.0,STARLINK-3149,PAYLOAD,2022-01-06 22:00:00,15.3785702,0.0001479,53.217,227.1791,73.3921,82.9143,-0.014795,-0.0052222,0.0,0 STARLINK-3149,1 49423U 21104R   22006.91667824 -.00522220  00000-0 -14795-1 0  9995,2 49423  53.2170 227.1791 0001479  73.3921  82.9143 15.37857020  3689,6830.585,93.637,453.46,451.439,0.0
49423.0,STARLINK-3149,PAYLOAD,2022-01-07 14:00:01,15.36915973,0.0001307,53.2169,224.0512,72.4862,175.8584,-0.014826,-0.00508423,0.0,0 STARLINK-3149,1 49423U 21104R   22007.58334491 -.00508423  00000-0 -14826-1 0  9994,2 49423  53.2169 224.0512 0001307  72.4862 175.8584 15.36915973  3646,6833.371999999999,93.694,456.131,454.344,0.0
49423.0,STARLINK-3149,PAYLOAD,2022-01-07 22:00:00,15.36476246,0.0001428,53.2173,222.4925,77.4572,216.047,-0.016163,-0.00543878,0.0,0 STARLINK-3149,1 49423U 21104R   22007.91667824 -.00543878  00000-0 -16163-1 0  9999,2 49423  53.2173 222.4925 0001428  77.4572 216.0470 15.36476246  3645,6834.676,93.721,457.517,455.565,0.0
49423.0,STARLINK-3149,PAYLOAD,2022-01-08 00:00:00,15.36423462,0.0001258,53.2174,222.1034,67.1527,327.5227,-0.018883,-0.0063467,0.0,0 STARLINK-3149,1 49423U 21104R   22008.00001157 -.00634670  00000-0 -18883-1 0  9993,2 49423  53.2174 222.1034 0001258  67.1527 327.5227 15.36423462  9951,6834.833000000001,93.724,457.5580000000001,455.838,0.0
49423.0,STARLINK-3149,PAYLOAD,2022-01-08 14:00:01,15.35623652,0.0001259,53.2175,219.3733,63.2502,318.882,-0.020141,-0.00657959,0.0,0 STARLINK-3149,1 49423U 21104R   22008.58334491 -.00657959  00000-0 -20141-1 0  9991,2 49423  53.2175 219.3733 0001259  63.2502 318.8820 15.35623652 10043,6837.206,93.773,459.932,458.21,0.0
49423.0,STARLINK-3149,PAYLOAD,2022-01-08 22:00:00,15.35160125,0.0001467,53.2175,217.8175,49.2138,16.4105,-0.020641,-0.00663893,0.0,0 STARLINK-3149,1 49423U 21104R   22008.91667824 -.00663893  00000-0 -20641-1 0  9996,2 49423  53.2175 217.8175 0001467  49.2138  16.4105 15.35160125  3653,6838.581999999999,93.801,461.45,459.444,0.0
49423.0,STARLINK-3149,PAYLOAD,2022-01-09 14:00:01,15.34225196,0.0001469,53.2176,214.7034,58.7955,92.1369,-0.02113,-0.00659873,0.0,0 STARLINK-3149,1 49423U 21104R   22009.58334491 -.00659873  00000-0 -21130-1 0  9998,2 49423  53.2176 214.7034 0001469  58.7955  92.1369 15.34225196 10209,6841.36,93.858,464.23,462.22,0.0
49423.0,STARLINK-3149,PAYLOAD,2022-01-09 22:00:00,15.3375801,0.0001658,53.2175,213.1508,50.2786,142.4652,-0.021428,-0.00659349,0.0,0 STARLINK-3149,1 49423U 21104R   22009.91667824 -.00659349  00000-0 -21428-1 0  9992,2 49423  53.2175 213.1508 0001658  50.2786 142.4652 15.33758010  3667,6842.749,93.887,465.749,463.48,0.0
49423.0,STARLINK-3149,PAYLOAD,2022-01-10 14:00:01,15.32825657,0.0001496999999999,53.2177,210.0433,56.2602,218.4269,-0.022086,-0.0065973,0.0,0 STARLINK-3149,1 49423U 21104R   22010.58334491 -.00659730  00000-0 -22086-1 0  9993,2 49423  53.2177 210.0433 0001497  56.2602 218.4269 15.32825657  3654,6845.524,93.944,468.413,466.364,0.0
49423.0,STARLINK-3149,PAYLOAD,2022-01-10 22:00:00,15.32358951,0.0001419999999999,53.2177,208.4941,58.1097,256.7069,-0.02244,-0.00660429,0.0,0 STARLINK-3149,1 49423U 21104R   22010.91667824 -.00660429  00000-0 -22440-1 0  9990,2 49423  53.2177 208.4941 0001420  58.1097 256.7069 15.32358951 10406,6846.913000000001,93.973,469.751,467.806,0.0
49423.0,STARLINK-3149,PAYLOAD,2022-01-11 14:00:01,15.31425714,0.0001435,53.2177,205.3935,49.1711,344.2254,-0.023085,-0.00659803,0.0,0 STARLINK-3149,1 49423U 21104R   22011.58334491 -.00659803  00000-0 -23085-1 0  9995,2 49423  53.2177 205.3935 0001435  49.1711 344.2254 15.31425714  3653,6849.695,94.03,472.543,470.577,0.0
49423.0,STARLINK-3149,PAYLOAD,2022-01-11 22:00:00,15.30958975,0.000154,53.2177,203.8474,46.3351,25.5091,-0.023452,-0.00660523,0.0,0 STARLINK-3149,1 49423U 21104R   22011.91667824 -.00660523  00000-0 -23452-1 0  9990,2 49423  53.2177 203.8474 0001540  46.3351  25.5091 15.30958975  3646,6851.087,94.059,474.007,471.897,0.0
49423.0,STARLINK-3149,PAYLOAD,2022-01-12 06:00:00,15.30492282,0.0001345,53.2176,202.2991,58.8846,50.8482,-0.023765,-0.00659693,0.0,0 STARLINK-3149,1 49423U 21104R   22012.25001157 -.00659693  00000-0 -23765-1 0  9992,2 49423  53.2176 202.2991 0001345  58.8846  50.8482 15.30492282 10616,6852.48,94.087,475.266,473.423,0.0
